BATSU-CS1 (IRAZU)       
1 43468U 98067NR  20035.53951238  .00191095  25388-4  48156-3 0  9993
2 43468  51.6288 219.4103 0003682 253.7821 106.2782 15.95205245199399
CUBERRT                 
1 43546U 98067NU  20035.49870821  .00013305  00000-0  11666-3 0  9996
2 43546  51.6349 246.4547 0002852 293.1328  66.9368 15.69216098 89180
TEMPEST-D               
1 43547U 98067NV  20035.53389277  .00004773  00000-0  62947-4 0  9990
2 43547  51.6369 267.0037 0004355 269.0640  90.9854 15.60510206 88595
RAINCUBE                
1 43548U 98067NW  20035.48834571  .00017747  00000-0  16265-3 0  9993
2 43548  51.6340 254.6162 0003635 282.5178  77.5412 15.67848316 89205
HALOSAT                 
1 43549U 98067NX  20035.31888435  .00014719  00000-0  13685-3 0  9993
2 43549  51.6357 255.7776 0003586 284.3513  75.7085 15.67661604 88731
ENDUROSAT ONE           
1 43551U 98067NZ  20034.99882228  .00024461  00000-0  19355-3 0  9998
2 43551  51.6337 251.3494 0003464 292.8325  67.2307 15.71192779 89170
EQUISAT                 
1 43552U 98067PA  20035.33448526  .00016829  00000-0  15355-3 0  9992
2 43552  51.6363 254.4222 0004089 293.6625  66.3942 15.68003541 89123
AEROCUBE 12A            
1 43556U 18046C   20035.37042646  .00001364  00000-0  59652-4 0  9999
2 43556  51.6432  29.6075 0008299 172.1649 187.9463 15.29365521 86857
AEROCUBE 12B            
1 43557U 18046D   20035.40913495  .00000677  00000-0  36117-4 0  9990
2 43557  51.6431  29.8587 0008366 171.6013 188.5109 15.29145634 86801
UITMSAT-1               
1 43589U 98067PD  20035.00955314  .00020535  00000-0  17797-3 0  9995
2 43589  51.6329 255.8768 0003322 301.5191  58.5482 15.69110222 84810
MAYA-1                  
1 43590U 98067PE  20035.32111032  .00020308  00000-0  17595-3 0  9997
2 43590  51.6330 254.2150 0003438 302.5865  57.4799 15.69126076 84799
BHUTAN-1                
1 43591U 98067PF  20035.30246205  .00020442  00000-0  17652-3 0  9990
2 43591  51.6344 254.1381 0003551 303.0874  56.9781 15.69201937 84797
SIRIUSSAT-1             
1 43595U 98067PG  20035.50666999  .00017908  00000-0  16495-3 0  9999
2 43595  51.6334 256.2130 0002229 247.7488 112.3272 15.67719451 83964
SIRIUSSAT-2             
1 43596U 98067PH  20035.55999862  .00018794  00000-0  17350-3 0  9998
2 43596  51.6343 256.6313 0002642 249.2145 110.8568 15.67624234 83963
TANUSHA-3               
1 43597U 98067PJ  20035.55934515  .00030989  00000-0  23576-3 0  9990
2 43597  51.6312 250.4933 0002085 257.7345 102.3419 15.71992286 84048
SURFSAT                 
1 43614U 18070B   20035.18731082  .00002183  00000-0  57359-4 0  9991
2 43614  93.0333  99.0662 0017605 130.1191 230.1609 15.38544750 77836
CP7 (DAVE)              
1 43615U 18070C   20035.14250353  .00002149  00000-0  56665-4 0  9996
2 43615  93.0337  99.0443 0017748 129.7713 230.5107 15.38431707 77823
ELFIN-B                 
1 43616U 18070D   20035.41765844  .00003438  00000-0  87462-4 0  9994
2 43616  93.0297  99.0700 0018282 131.4749 228.8078 15.39483939 77897
ELFIN-A                 
1 43617U 18070E   20035.46458930  .00003422  00000-0  86709-4 0  9991
2 43617  93.0352  99.4896 0017677 128.1567 232.1284 15.39616856 77903
CUBEBEL-1 (BSUSAT-1)    
1 43666U 18083E   20035.51028006  .00000984  00000-0  51630-4 0  9997
2 43666  97.5034  63.2206 0016865 105.0810  37.6598 15.17990218 70294
DEBRISSAT-2             
1 43680U 98067PR  20035.30057665  .00050613  00000-0  31292-3 0  9998
2 43680  51.6343 248.0433 0001585 248.7217 111.3614 15.76578879 92785
CICERO 10               
1 43690U 18088A   20035.53287773  .00001015  00000-0  45079-4 0  9995
2 43690  85.0408 166.5393 0017170  83.0566 277.2627 15.20011310 68412
IRVINE01                
1 43693U 18088D   20035.55064192  .00002385  00000-0  10133-3 0  9991
2 43693  85.0375 165.5994 0019794  67.6373 292.6964 15.22290796 68472
PROXIMA I               
1 43694U 18088E   20035.61164210  .00000951  00000-0  39926-4 0  9990
2 43694  85.0351 165.3552 0021152  59.3730 300.9594 15.21746003 68491
PROXIMA II              
1 43696U 18088G   20035.61011642  .00000942  00000-0  39513-4 0  9994
2 43696  85.0352 165.3586 0021194  59.3167 301.0159 15.21750038 68482
FACSAT-1                
1 43721U 18096C   20035.53353805  .00001371  00000-0  54634-4 0  9991
2 43721  97.4354 109.7737 0016500 232.4024 127.5717 15.26847340 65959
CENTAURI-2              
1 43722U 18096D   20035.46928965  .00001790  00000-0  69613-4 0  9997
2 43722  97.4362 109.8720 0016563 232.8864 127.0862 15.27253025 65944
INNOSAT-2               
1 43738U 18096V   20035.51713872  .00002407  00000-0  85931-4 0  9996
2 43738  97.4373 111.3571 0022443 242.6103 117.2854 15.29644792 66056
SIRION PATHFINDER-2     
1 43759U 18099B   20035.47060294  .00000335  00000-0  35651-4 0  9992
2 43759  97.7208 109.3231 0012833 270.1256  89.8494 14.95221134 63904
CORVUS-BC 4             
1 43767U 18099K   20035.56276245  .00000162  00000-0  20228-4 0  9998
2 43767  97.7195 108.9684 0010284 274.6355  85.3691 14.94664637 63900
MOVE-II                 
1 43780U 18099Y   20035.42442055  .00000643  00000-0  63567-4 0  9999
2 43780  97.7213 109.1817 0012035 282.9564  77.0312 14.95269565 63884
SPACEBEE-7              
1 43816U 18099BL  20035.45781072  .00000088  00000-0  13113-4 0  9992
2 43816  97.7224 109.5221 0012123 265.5973  94.3863 14.95579114 63469
SPACEBEE-5              
1 43817U 18099BM  20035.45925868  .00000653  00000-0  63271-4 0  9994
2 43817  97.7261 109.7815 0012026 264.9238  95.0611 14.96037834 63470
SPACEBEE-6              
1 43818U 18099BN  20035.43640866  .00000288  00000-0  31013-4 0  9998
2 43818  97.7239 109.5822 0011902 265.6855  94.3006 14.95728940 63617
SHIELDS 1               
1 43850U 18104B   20035.34791272  .00000041  00000-0  00000+0 0  9993
2 43850  85.0238 263.9873 0013639 194.6576 165.4372 15.21265410 63088
STF-1                   
1 43852U 18104D   20035.34511281  .00000041  00000-0  00000-0 0  9996
2 43852  85.0352 264.4308 0013013 210.0200 150.0334 15.20999202 63067
ZACUBE-2                
1 43907U 18111AH  20035.55331922  .00000526  00000-0  24202-4 0  9992
2 43907  97.2776 299.2599 0019900 255.7210 104.1818 15.24437642 61614
LUME 1                  
1 43908U 18111AJ  20035.51154641  .00000944  00000-0  40763-4 0  9994
2 43908  97.2775 299.3120 0019742 255.8280 104.0765 15.24763409 61610
AOBA VELOX-IV           
1 43940U 19003J   20035.44648359  .00002032  00000-0  84852-4 0  9994
2 43940  97.2474  91.2217 0023315 341.6456  75.5622 15.24524821 58239
CATSAT-2                
1 44029U 98067PV  20035.50911153  .00012554  00000-0  15140-3 0  9995
2 44029  51.6383 272.8766 0003326 296.0580  64.0071 15.61178863 57577
DELPHINI                
1 44030U 98067PW  20035.07964634  .00013155  00000-0  15545-3 0  9998
2 44030  51.6355 274.4497 0003146 287.1994  72.8655 15.61662357 57488
UNITE                   
1 44031U 98067PX  20035.36746511  .00007409  00000-0  10029-3 0  9990
2 44031  51.6374 276.4040 0002349 287.1660  72.9075 15.58841628 57483
TECHEDSAT 8             
1 44032U 98067PY  20035.53295846  .00078728  00000-0  47925-3 0  9997
2 44032  51.6297 257.9055 0002391 238.2082 121.8686 15.76750473 57726
CATSAT-1                
1 44033U 98067PZ  20035.38090878  .00011854  00000-0  14326-3 0  9995
2 44033  51.6386 273.5241 0003249 294.0874  65.9780 15.61187336 57469
RAAVANA-1               
1 44329U 98067QE  20035.07981221  .00007629  00000-0  11739-3 0  9990
2 44329  51.6398 286.5116 0006313 213.2866 146.7729 15.55279272 36073
UGUISU                  
1 44330U 98067QF  20035.53621609  .00007732  00000-0  11909-3 0  9998
2 44330  51.6397 284.3079 0006279 213.6225 146.4368 15.55228580 36120
NEPALISAT-1             
1 44331U 98067QG  20035.52451501  .00007634  00000-0  11729-3 0  9991
2 44331  51.6398 284.2319 0006328 216.3379 143.7183 15.55317661 36138
SPOOQY-1                
1 44332U 98067QH  20035.52237378  .00007441  00000-0  11465-3 0  9999
2 44332  51.6397 284.2146 0005129 217.5109 142.5525 15.55288218 36095
SPACEBEE-9              
1 44370U 19037F   20035.35014215  .00008727  00000-0  21193-3 0  9992
2 44370  45.0103 144.4594 0012141 120.4091 239.7903 15.41400614 33892
SPACEBEE-8              
1 44371U 19037G   20035.58072649  .00015939  00000-0  35053-3 0  9996
2 44371  45.0112 141.1137 0009519 119.0787 241.1065 15.43835108 33945
IOD-1 GEMS              
1 44385U 98067QK  20035.39274507  .00012007  00000-0  17468-3 0  9990
2 44385  51.6406 284.8793 0003327 173.6045 186.4989 15.56199592 33597
MOVE-IIB                
1 44398U 19038N   20035.55467852  .00000996  00000-0  61456-4 0  9991
2 44398  97.5192 358.6644 0024103 226.5970 133.3255 15.12022261 32346
SONATE                  
1 44400U 19038Q   20035.56373436  .00000442  00000-0  29536-4 0  9999
2 44400  97.5218 358.6918 0024113 224.5534 135.3759 15.11820427 32348
LUCKY-7                 
1 44406U 19038W   20035.53516249  .00000468  00000-0  30892-4 0  9998
2 44406  97.5216 358.7243 0023567 224.4764 135.4575 15.12048882 32334
BEESAT 9                
1 44412U 19038AC  20035.47212580  .00000665  00000-0  42296-4 0  9999
2 44412  97.5210 358.6459 0021544 230.6952 129.2369 15.12070303 32025
JAISAT-1                
1 44419U 19038F   20035.53514570  .00000667  00000-0  41883-4 0  9990
2 44419  97.5211 358.8712 0020409 229.8071 130.1373 15.12552761 32353
SWIATOWID               
1 44426U 98067QL  20035.53003679  .00015193  00000-0  21710-3 0  9996
2 44426  51.6423 284.1530 0003983 168.2154 255.8076 15.56449737 33624
KRAKSAT                 
1 44427U 98067QM  20035.53233630  .00005983  00000-0  97926-4 0  9998
2 44427  51.6413 285.8043 0004034 166.9915 193.1180 15.54017441 33642
VCC A                   
1 44428U 98067QN  20035.21598102  .00007617  00000-0  11942-3 0  9991
2 44428  51.6410 286.6947 0003135 181.4090 178.6892 15.54767022 33600
